CCSDS_OMM_VERS = 2.0
CREATION_DATE  = 
ORIGINATOR     = 

OBJECT_NAME    = STARLINK-37066
OBJECT_ID      = 2026-042N
CENTER_NAME    = EARTH
REF_FRAME      = TEME
TIME_SYSTEM    = UTC
MEAN_ELEMENT_THEORY = SGP/SGP4

EPOCH          = 2026-04-02T05:58:52.080096
MEAN_MOTION    = 15.75334718
ECCENTRICITY   = .00013396
INCLINATION    = 53.1599
RA_OF_ASC_NODE = 77.1153
ARG_OF_PERICENTER = 109.6084
MEAN_ANOMALY   = 250.5081

EPHEMERIS_TYPE = 0
CLASSIFICATION_TYPE = U
NORAD_CAT_ID   = 68081
ELEMENT_SET_NO = 999
REV_AT_EPOCH   = 580
BSTAR          = .24584257E-2
MEAN_MOTION_DOT = .396049E-2
MEAN_MOTION_DDOT = 0

CCSDS_OMM_VERS = 2.0
CREATION_DATE  = 
ORIGINATOR     = 

OBJECT_NAME    = STARLINK-37054
OBJECT_ID      = 2026-042P
CENTER_NAME    = EARTH
REF_FRAME      = TEME
TIME_SYSTEM    = UTC
MEAN_ELEMENT_THEORY = SGP/SGP4

EPOCH          = 2026-04-02T06:00:02.999808
MEAN_MOTION    = 15.78203481
ECCENTRICITY   = .00011011
INCLINATION    = 53.1581
RA_OF_ASC_NODE = 76.5924
ARG_OF_PERICENTER = 110.4395
MEAN_ANOMALY   = 148.0720

EPHEMERIS_TYPE = 0
CLASSIFICATION_TYPE = U
NORAD_CAT_ID   = 68082
ELEMENT_SET_NO = 999
REV_AT_EPOCH   = 584
BSTAR          = -.12627078E-1
MEAN_MOTION_DOT = -.1920663E-1
MEAN_MOTION_DDOT = 0

CCSDS_OMM_VERS = 2.0
CREATION_DATE  = 
ORIGINATOR     = 

OBJECT_NAME    = STARLINK-37065
OBJECT_ID      = 2026-042Q
CENTER_NAME    = EARTH
REF_FRAME      = TEME
TIME_SYSTEM    = UTC
MEAN_ELEMENT_THEORY = SGP/SGP4

EPOCH          = 2026-04-02T03:02:41.118720
MEAN_MOTION    = 15.75393003
ECCENTRICITY   = .0001359
INCLINATION    = 53.1589
RA_OF_ASC_NODE = 77.7758
ARG_OF_PERICENTER = 143.6213
MEAN_ANOMALY   = 216.4900

EPHEMERIS_TYPE = 0
CLASSIFICATION_TYPE = U
NORAD_CAT_ID   = 68083
ELEMENT_SET_NO = 999
REV_AT_EPOCH   = 578
BSTAR          = .24081601E-2
MEAN_MOTION_DOT = .388576E-2
MEAN_MOTION_DDOT = 0

CCSDS_OMM_VERS = 2.0
CREATION_DATE  = 
ORIGINATOR     = 

OBJECT_NAME    = STARLINK-37037
OBJECT_ID      = 2026-042R
CENTER_NAME    = EARTH
REF_FRAME      = TEME
TIME_SYSTEM    = UTC
MEAN_ELEMENT_THEORY = SGP/SGP4

EPOCH          = 2026-04-02T02:36:32.515488
MEAN_MOTION    = 15.75352970
ECCENTRICITY   = .0001872
INCLINATION    = 53.1581
RA_OF_ASC_NODE = 77.6555
ARG_OF_PERICENTER = 152.3590
MEAN_ANOMALY   = 207.7530

EPHEMERIS_TYPE = 0
CLASSIFICATION_TYPE = U
NORAD_CAT_ID   = 68084
ELEMENT_SET_NO = 999
REV_AT_EPOCH   = 578
BSTAR          = .18575448E-2
MEAN_MOTION_DOT = .295748E-2
MEAN_MOTION_DDOT = 0

CCSDS_OMM_VERS = 2.0
CREATION_DATE  = 
ORIGINATOR     = 

OBJECT_NAME    = STARLINK-37068
OBJECT_ID      = 2026-042S
CENTER_NAME    = EARTH
REF_FRAME      = TEME
TIME_SYSTEM    = UTC
MEAN_ELEMENT_THEORY = SGP/SGP4

EPOCH          = 2026-04-02T05:20:07.719648
MEAN_MOTION    = 15.75325279
ECCENTRICITY   = .00011706
INCLINATION    = 53.1595
RA_OF_ASC_NODE = 76.9349
ARG_OF_PERICENTER = 86.1932
MEAN_ANOMALY   = 273.9222

EPHEMERIS_TYPE = 0
CLASSIFICATION_TYPE = U
NORAD_CAT_ID   = 68085
ELEMENT_SET_NO = 999
REV_AT_EPOCH   = 580
BSTAR          = .90858742E-3
MEAN_MOTION_DOT = .141521E-2
MEAN_MOTION_DDOT = 0

CCSDS_OMM_VERS = 2.0
CREATION_DATE  = 
ORIGINATOR     = 

OBJECT_NAME    = STARLINK-37067
OBJECT_ID      = 2026-042T
CENTER_NAME    = EARTH
REF_FRAME      = TEME
TIME_SYSTEM    = UTC
MEAN_ELEMENT_THEORY = SGP/SGP4

EPOCH          = 2026-04-02T06:00:02.999808
MEAN_MOTION    = 15.75194400
ECCENTRICITY   = .00012944
INCLINATION    = 53.1594
RA_OF_ASC_NODE = 76.5880
ARG_OF_PERICENTER = 80.5025
MEAN_ANOMALY   = 179.9210

EPHEMERIS_TYPE = 0
CLASSIFICATION_TYPE = U
NORAD_CAT_ID   = 68086
ELEMENT_SET_NO = 999
REV_AT_EPOCH   = 584
BSTAR          = .36261849E-3
MEAN_MOTION_DOT = .552E-3
MEAN_MOTION_DDOT = 0

CCSDS_OMM_VERS = 2.0
CREATION_DATE  = 
ORIGINATOR     = 

OBJECT_NAME    = STARLINK-37062
OBJECT_ID      = 2026-042U
CENTER_NAME    = EARTH
REF_FRAME      = TEME
TIME_SYSTEM    = UTC
MEAN_ELEMENT_THEORY = SGP/SGP4

EPOCH          = 2026-04-02T06:00:02.999808
MEAN_MOTION    = 15.75262414
ECCENTRICITY   = .00013095
INCLINATION    = 53.1591
RA_OF_ASC_NODE = 76.6368
ARG_OF_PERICENTER = 102.5053
MEAN_ANOMALY   = 134.0247

EPHEMERIS_TYPE = 0
CLASSIFICATION_TYPE = U
NORAD_CAT_ID   = 68087
ELEMENT_SET_NO = 999
REV_AT_EPOCH   = 584
BSTAR          = -.67550371E-3
MEAN_MOTION_DOT = -.103042E-2
MEAN_MOTION_DDOT = 0

CCSDS_OMM_VERS = 2.0
CREATION_DATE  = 
ORIGINATOR     = 

OBJECT_NAME    = STARLINK-37059
OBJECT_ID      = 2026-042V
CENTER_NAME    = EARTH
REF_FRAME      = TEME
TIME_SYSTEM    = UTC
MEAN_ELEMENT_THEORY = SGP/SGP4

EPOCH          = 2026-04-02T05:13:07.176288
MEAN_MOTION    = 15.75345156
ECCENTRICITY   = .00010628
INCLINATION    = 53.1599
RA_OF_ASC_NODE = 76.9029
ARG_OF_PERICENTER = 100.9991
MEAN_ANOMALY   = 259.1149

EPHEMERIS_TYPE = 0
CLASSIFICATION_TYPE = U
NORAD_CAT_ID   = 68088
ELEMENT_SET_NO = 999
REV_AT_EPOCH   = 580
BSTAR          = .1658158E-2
MEAN_MOTION_DOT = .262807E-2
MEAN_MOTION_DDOT = 0

CCSDS_OMM_VERS = 2.0
CREATION_DATE  = 
ORIGINATOR     = 

OBJECT_NAME    = STARLINK-37004
OBJECT_ID      = 2026-042W
CENTER_NAME    = EARTH
REF_FRAME      = TEME
TIME_SYSTEM    = UTC
MEAN_ELEMENT_THEORY = SGP/SGP4

EPOCH          = 2026-04-02T05:19:39.327744
MEAN_MOTION    = 15.75315476
ECCENTRICITY   = .00008068
INCLINATION    = 53.1595
RA_OF_ASC_NODE = 76.9331
ARG_OF_PERICENTER = 84.4715
MEAN_ANOMALY   = 275.6397

EPHEMERIS_TYPE = 0
CLASSIFICATION_TYPE = U
NORAD_CAT_ID   = 68089
ELEMENT_SET_NO = 999
REV_AT_EPOCH   = 580
BSTAR          = .12603129E-2
MEAN_MOTION_DOT = .197794E-2
MEAN_MOTION_DDOT = 0

CCSDS_OMM_VERS = 2.0
CREATION_DATE  = 
ORIGINATOR     = 

OBJECT_NAME    = STARLINK-36320
OBJECT_ID      = 2026-042X
CENTER_NAME    = EARTH
REF_FRAME      = TEME
TIME_SYSTEM    = UTC
MEAN_ELEMENT_THEORY = SGP/SGP4

EPOCH          = 2026-03-27T03:41:33.349344
MEAN_MOTION    = 15.75432358
ECCENTRICITY   = .00027632
INCLINATION    = 53.1593
RA_OF_ASC_NODE = 107.3571
ARG_OF_PERICENTER = 139.4736
MEAN_ANOMALY   = 220.6491

EPHEMERIS_TYPE = 0
CLASSIFICATION_TYPE = U
NORAD_CAT_ID   = 68090
ELEMENT_SET_NO = 999
REV_AT_EPOCH   = 484
BSTAR          = .2325439E-2
MEAN_MOTION_DOT = .375248E-2
MEAN_MOTION_DDOT = 0

CCSDS_OMM_VERS = 2.0
CREATION_DATE  = 
ORIGINATOR     = 

OBJECT_NAME    = STARLINK-36324
OBJECT_ID      = 2026-042Y
CENTER_NAME    = EARTH
REF_FRAME      = TEME
TIME_SYSTEM    = UTC
MEAN_ELEMENT_THEORY = SGP/SGP4

EPOCH          = 2026-04-02T04:27:30.956544
MEAN_MOTION    = 15.76737046
ECCENTRICITY   = .00051335
INCLINATION    = 53.1582
RA_OF_ASC_NODE = 77.4309
ARG_OF_PERICENTER = 273.4770
MEAN_ANOMALY   = 86.5663

EPHEMERIS_TYPE = 0
CLASSIFICATION_TYPE = U
NORAD_CAT_ID   = 68091
ELEMENT_SET_NO = 999
REV_AT_EPOCH   = 579
BSTAR          = .66263476E-2
MEAN_MOTION_DOT = .1201852E-1
MEAN_MOTION_DDOT = 0

CCSDS_OMM_VERS = 2.0
CREATION_DATE  = 
ORIGINATOR     = 

OBJECT_NAME    = STARLINK-36896
OBJECT_ID      = 2026-042Z
CENTER_NAME    = EARTH
REF_FRAME      = TEME
TIME_SYSTEM    = UTC
MEAN_ELEMENT_THEORY = SGP/SGP4

EPOCH          = 2026-04-02T06:00:02.999808
MEAN_MOTION    = 15.75283445
ECCENTRICITY   = .00011305
INCLINATION    = 53.1582
RA_OF_ASC_NODE = 77.0068
ARG_OF_PERICENTER = 89.7105
MEAN_ANOMALY   = 326.5408

EPHEMERIS_TYPE = 0
CLASSIFICATION_TYPE = U
NORAD_CAT_ID   = 68092
ELEMENT_SET_NO = 999
REV_AT_EPOCH   = 584
BSTAR          = -.92744127E-3
MEAN_MOTION_DOT = -.140738E-2
MEAN_MOTION_DDOT = 0

